1 41216U 00055DV  18212.92440460 +.00000285 +00000-0 +25675-3 0  9990
2 41216 098.8556 248.3541 0111965 150.5031 210.2508 13.88825450133977
1 41253U 00055FD  18212.12949086  .00000989  00000-0  42263-3 0  9994
2 41253  98.9797 316.7975 0067121 200.3018 159.5490 14.26131891133674
1 41412U 00055KR  18213.10070549  .00000394  00000-0  25576-3 0  9997
2 41412  98.7676 267.8525 0027795  27.9913 332.2744 14.08039523125708
1 41282U 00055GJ  18212.33598728  .00000261  00000-0  20917-3 0  9997
2 41282  98.8732 261.3717 0072752  97.7504 263.1928 13.97864201132781
1 41348U 00055HR  18212.41817164  .00000691  00000-0  38593-3 0  9993
2 41348  98.8471 282.2371 0042459 126.4600 234.0497 14.13653829129314
1 41497U 00055LV  18212.39084393  .00000337  00000-0  23059-3 0  9993
2 41497  98.8398 275.4676 0038107  24.7623 335.5364 14.05945312123090
1 41229U 00055EJ  18213.42116318  .00000125  00000-0  10858-3 0  9992
2 41229  98.8850 268.3878 0078453  42.0349 318.6800 14.01296462134839
1 41232U 00055EM  18210.44678266 +.00000188 +00000-0 +14837-3 0  9990
2 41232 098.9550 275.0067 0053480 073.6931 287.0107 14.02496525134412
1 41425U 00055LE  18212.07310834  .00000889  00000-0  38907-3 0  9991
2 41425  98.9202 309.9100 0057624 177.7471 182.3978 14.25459500128710
1 41295U 00055GX  18212.39368328  .00000458  00000-0  29581-3 0  9992
2 41295  98.8399 275.6561 0029206  86.7509 273.7001 14.07640042133875
1 41298U 00055HA  18213.40088441  .00000504  00000-0  30195-3 0  9998
2 41298  98.8766 284.7796 0058453 317.3273  42.3366 14.10743900133598
1 41367U 00055JL  18213.48920261  .00000942  00000-0  45275-3 0  9999
2 41367  98.9354 305.3073 0054807 230.5301 129.1020 14.20527903128841
1 41256U 00055FG  18212.51028898 +.00001039 +00000-0 +52493-3 0  9992
2 41256 099.0718 314.1208 0025671 188.9759 171.0960 14.18353617133214
1 41415U 00055KU  18212.39934702 +.00000471 +00000-0 +26891-3 0  9997
2 41415 098.8558 287.6167 0008656 183.5567 176.5545 14.14482623125395
1 41285U 00055GM  18212.40556018 +.00000509 +00000-0 +30042-3 0  9999
2 41285 098.8605 283.8239 0059041 312.1251 047.4911 14.11433868134202
1 41351U 00055HU  18213.41359849  .00000263  00000-0  17289-3 0  9993
2 41351  98.7928 275.5730 0013981 103.4276 256.8454 14.10164609131587
1 41343U 00055HL  18212.98180398  .00000487  00000-0  27163-3 0  9996
2 41343  98.7625 279.6182 0027381 269.8406  89.9630 14.15320702129793
1 41500U 00055LY  18212.22005143  .00000907  00000-0  43194-3 0  9991
2 41500  98.9557 307.6092 0046270 223.7516 135.9991 14.21387635124203
1 41266U 00055FS  18212.44086367  .00000437  00000-0  26138-3 0  9998
2 41266  98.8450 283.4852 0002792 354.3695   5.7445 14.12334565134335
1 41399U 00055KC  18212.40815616  .00000199  00000-0  15123-3 0  9995
2 41399  98.8889 274.9877 0047397  48.1890 312.3311 14.04144056128837
1 41269U 00055FV  18212.40722472 +.00000696 +00000-0 +44163-3 0  9996
2 41269 098.9768 285.9617 0033000 092.8365 267.6581 14.06936005134128
1 41428U 00055LH  18213.04234592  .00000551  00000-0  30494-3 0  9997
2 41428  98.8772 291.8509 0021531 154.0823 206.1433 14.15311374125558
1 41402U 00055KF  18212.42543096 -.00000003  00000-0  24214-4 0  9999
2 41402  98.8568 273.8275 0037854 103.2310 257.3085 14.05431548126978
1 41272U 00055FY  18212.38013543 +.00000371 +00000-0 +24347-3 0  9991
2 41272 098.8943 280.7788 0031810 021.5678 338.6824 14.07911455133852
1 41431U 00055LL  18213.15181710  .00001972  00000-0  78154-3 0  9999
2 41431  98.9666 318.7810 0062169 165.9823 194.3101 14.28988807130890
1 41405U 00055KJ  18212.53374976  .00000774  00000-0  44655-3 0  9997
2 41405  98.9054 286.4339 0015048 352.1268   7.9665 14.11994121126084
1 41301U 00055HD  18212.38759516  .00000551  00000-0  35070-3 0  9996
2 41301  98.8185 272.2942 0027960  88.9608 271.4764 14.07605926133290
1 41219U 00055DY  18212.41817819  .00000389  00000-0  23270-3 0  9997
2 41219  98.8096 280.6755 0010487 134.2467 225.9568 14.12874553136354
1 41304U 00055HG  18213.47509700  .00000460  00000-0  29394-3 0  9999
2 41304  99.0434 296.6631 0052002 143.3666 217.1076 14.07863258133436
1 41222U 00055EB  18212.31190825 -.00000031 +00000-0 +73373-5 0  9997
2 41222 098.8215 259.5997 0062160 111.5897 249.1906 13.99529303134776
1 41370U 00055JP  18213.06104477  .00000970  00000-0  35495-3 0  9994
2 41370  98.8816 317.8031 0091820 140.4155 220.3780 14.32916009139325
1 41418U 00055KX  18213.51449186  .00000833  00000-0  39545-3 0  9994
2 41418  98.9550 309.5452 0041791 185.1667 174.9084 14.21839040126059
1 41354U 00055HX  18213.39003340  .00000378  00000-0  23946-3 0  9999
2 41354  98.8609 282.4871 0022602 354.2825   5.8084 14.09861466129239
1 41346U 00055HP  18213.28749994  .00000118  00000-0  13296-3 0  9999
2 41346  98.8034 234.9293 0166625 144.8769 216.3506 13.81234692127450
1 41503U 00055MB  18212.45004045 +.00000737 +00000-0 +35953-3 0  9994
2 41503 098.8060 291.5279 0038352 205.3630 154.5665 14.20763133124460
1 41235U 00055EQ  18213.46922457  .00002401  00000-0  12083-2 0  9992
2 41235  99.0302 299.1756 0013724 273.1299  86.8304 14.17363909135897
1 41357U 00055JA  18212.33914566  .00000154  00000-0  14227-3 0  9990
2 41357  98.9115 261.8019 0088662 112.7659 248.2900 13.94302021127799
1 41243U 00055ET  18212.66292888 +.00000432 +00000-0 +25812-3 0  9997
2 41243 098.8670 285.4763 0002872 022.9566 337.1733 14.12375793132586
1 41246U 00055EW  18213.11923297  .00001145  00000-0  46591-3 0  9995
2 41246  98.9468 316.6255 0070279 135.8428 224.8392 14.28195767133914
1 41275U 00055GB  18212.37668214  .00000300  00000-0  19225-3 0  9995
2 41275  98.8302 278.6416 0025501 105.7708 254.6278 14.10473463134135
1 41439U 16012H   18213.50556940  .00001790  00000-0  11724-3 0  9995
2 41439  31.0078   4.4335 0011536 172.0492 188.0329 15.04878597128873
1 41408U 00055KM  18212.40729311 +.00000525 +00000-0 +29325-3 0  9994
2 41408 098.8525 288.5923 0013916 240.2486 119.7303 14.15157148126672
1 41447U 16012R   18213.51078060  .00003409  00000-0  21414-3 0  9993
2 41447  31.0019 357.3006 0007622 217.1473 142.8637 15.07345395128950
1 41373U 00055JS  18212.46326404  .00000651  00000-0  33221-3 0  9997
2 41373  98.8727 296.2442 0029724 208.3760 151.5798 14.18958914130909
1 41259U 00055FK  18212.50782457  .00001457  00000-0  49968-3 0  9999
2 41259  98.8392 313.7358 0103081  93.7565 267.5413 14.34745341136879
1 41376U 00055JV  18213.45698482  .00000501  00000-0  28150-3 0  9997
2 41376  98.8575 289.8698 0020740 267.6168  92.2630 14.14948875131181
1 41288U 00055GQ  18212.45225285  .00000287  00000-0  20089-3 0  9999
2 41288  98.9571 282.0460 0041807 108.7050 251.8662 14.05814418133594
1 41421U 00055LA  18212.51641815  .00001004  00000-0  46322-3 0  9992
2 41421  98.9032 303.8843 0054930 208.4811 151.3362 14.22533314126221
1 41291U 00055GT  18212.07779831 +.00000870 +00000-0 +38827-3 0  9999
2 41291 098.9395 310.6071 0053959 178.3902 181.7459 14.24605473138239
1 41363U 00055JG  18213.09207954  .00000843  00000-0  41750-3 0  9993
2 41363  98.8954 298.8179 0029854 176.4546 183.6847 14.19764359128622
1 41249U 00055EZ  18212.11867452 +.00000819 +00000-0 +37246-3 0  9991
2 41249 098.9020 305.7258 0050616 168.8186 191.4129 14.23862460133422
1 41411U 00055KQ  18212.18811231 +.00000470 +00000-0 +25582-3 0  9996
2 41411 098.8627 292.2390 0020876 191.2312 168.8400 14.16993682127435
1 41307U 00055HK  18212.18775538  .00000931  00000-0  50401-3 0  9999
2 41307  98.9321 293.9181 0021426 301.3646  58.5431 14.14928131133692
1 41493U 00055LR  18212.02426871 +.00000653 +00000-0 +32556-3 0  9993
2 41493 098.8611 296.1240 0037319 206.1417 153.7876 14.20061419122228
1 41225U 00055EE  18213.49632555  .00001281  00000-0  63284-3 0  9996
2 41225  98.9239 299.9551 0042561 243.2918 116.3897 14.18765161136626
1 41347U 00055HQ  18213.13307068  .00000563  00000-0  33261-3 0  9994
2 41347  98.8428 281.8298 0023156 325.9547  34.0138 14.11722156129416
1 41320U 12026G   18212.72530091 -.00000128  00000-0  00000+0 0  9993
2 41320  12.6799   4.0873 4159456 334.1044   9.8063  1.76040748 16696
1 41228U 00055EH  18212.39809921  .00000572  00000-0  33905-3 0  9999
2 41228  98.8796 285.1404 0020711 334.8694  25.1467 14.11483104135357
1 41262U 00055FN  18213.37497408  .00000216  00000-0  17458-3 0  9999
2 41262  98.8727 262.2423 0067463 109.3763 251.4710 13.99124649135180
1 41294U 00055GW  18211.99135313  .00000946  00000-0  47798-3 0  9994
2 41294  98.8599 290.8149 0026565 164.9087 195.2886 14.18435723135042
1 41506U 00055ME  18212.03310412  .00000966  00000-0  40948-3 0  9993
2 41506  98.8004 297.8552 0061312 141.2707 219.2892 14.26717448131990
1 41360U 00055JD  18213.04927212  .00000511  00000-0  29702-3 0  9996
2 41360  98.9212 292.8899 0027768 314.7522  45.1390 14.12987419129301
1 41512U 00055ML  18212.44933321  .00000657  00000-0  31117-3 0  9990
2 41512  98.8841 302.5651 0046279 165.3406 194.9125 14.22523165122634
1 41366U 00055JK  18212.04958192  .00000910  00000-0  59291-3 0  9991
2 41366  98.9833 281.4843 0048638 114.3776 246.2478 14.04348948127211
1 41278U 00055GE  18213.03380144  .00001275  00000-0  56875-3 0  9999
2 41278  98.8590 300.0167 0045173 158.3936 201.9161 14.24009337135333
1 41252U 00055FC  18212.41416456 +.00000028 +00000-0 +46713-4 0  9994
2 41252 098.9374 272.2017 0069989 109.3953 251.4794 14.00337791135329
1 41281U 00055GH  18212.37187486  .00000797  00000-0  51582-3 0  9991
2 41281  98.8993 275.6351 0040999  82.3748 278.2073 14.05247190133432
1 41496U 00055LU  18212.44497330  .00000617  00000-0  32972-3 0  9992
2 41496  98.8361 289.3788 0021575 223.7481 136.1984 14.16789687124133
1 41324U 12026L   18212.49104853 -.00000123  00000-0  00000+0 0  9999
2 41324  12.6446   1.3956 4139481 341.3293   7.0079  1.79763649 16617
1 41379U 00055JY  18213.07796394  .00000590  00000-0  29853-3 0  9998
2 41379  98.8370 294.2853 0035307 163.1238 197.1121 14.19599965132035
1 41265U 00055FR  18213.09903664  .00000702  00000-0  45088-3 0  9997
2 41265  98.7736 265.5399 0037213  86.4492 274.0931 14.06062366133982
